start=new Date('2021-10-11T00:00:00.000Z').valueOf();
sats=[{"EPHEMERIS_TYPE":"0","ECCENTRICITY":"0.00017520","EPOCH":"2021-10-10T22:12:45.353088","RCS_SIZE":"LARGE","COUNTRY_CODE":"US","INCLINATION":"53.0537","CLASSIFICATION_TYPE":"U","TLE_LINE2":"2 45374  53.0537 197.6288 0001752  61.9380 298.1786 15.06391046 86955","REV_AT_EPOCH":"8695","DECAY_DATE":null,"FILE":"3155694","ELEMENT_SET_NO":"999","MEAN_MOTION_DDOT":"0.0000000000000","REF_FRAME":"TEME","MEAN_MOTION":"15.06391046","CENTER_NAME":"EARTH","OBJECT_TYPE":"PAYLOAD","PERIAPSIS":"546.028","SITE":"AFETR","MEAN_MOTION_DOT":"0.00000135","SEMIMAJOR_AXIS":"6925.376","RA_OF_ASC_NODE":"197.6288","APOAPSIS":"548.454","BSTAR":"0.00002795000000","MEAN_ELEMENT_THEORY":"SGP4","NORAD_CAT_ID":"45374","TLE_LINE1":"1 45374U 20019Q   21283.92552492  .00000135  00000-0  27950-4 0  9995","OBJECT_ID":"2020-019Q","MEAN_ANOMALY":"298.1786","PERIOD":"95.593","LAUNCH_DATE":"2020-03-18","GP_ID":"186838591","TIME_SYSTEM":"UTC","ARG_OF_PERICENTER":"61.9380","OBJECT_NAME":"STARLINK-1300"},{"ECCENTRICITY":"0.00018300","EPHEMERIS_TYPE":"0","RCS_SIZE":"LARGE","EPOCH":"2021-10-10T17:47:22.483680","COUNTRY_CODE":"US","INCLINATION":"53.0548","CLASSIFICATION_TYPE":"U","TLE_LINE2":"2 45375  53.0548 198.4546 0001830  64.6491 295.4687 15.06390996 86924","FILE":"3155694","DECAY_DATE":null,"REV_AT_EPOCH":"8692","REF_FRAME":"TEME","MEAN_MOTION_DDOT":"0.0000000000000","ELEMENT_SET_NO":"999","CENTER_NAME":"EARTH","OBJECT_TYPE":"PAYLOAD","MEAN_MOTION":"15.06390996","PERIAPSIS":"545.974","RA_OF_ASC_NODE":"198.4546","SITE":"AFETR","SEMIMAJOR_AXIS":"6925.376","MEAN_MOTION_DOT":"0.00000173","MEAN_ELEMENT_THEORY":"SGP4","BSTAR":"0.00003052800000","APOAPSIS":"548.508","NORAD_CAT_ID":"45375","TLE_LINE1":"1 45375U 20019R   21283.74123245  .00000173  00000-0  30528-4 0  9993","OBJECT_ID":"2020-019R","PERIOD":"95.593","MEAN_ANOMALY":"295.4687","GP_ID":"186838842","LAUNCH_DATE":"2020-03-18","OBJECT_NAME":"STARLINK-1302","ARG_OF_PERICENTER":"64.6491","TIME_SYSTEM":"UTC"},{"CLASSIFICATION_TYPE":"U","INCLINATION":"53.0547","COUNTRY_CODE":"US","EPOCH":"2021-10-10T21:24:58.785120","RCS_SIZE":"LARGE","EPHEMERIS_TYPE":"0","ECCENTRICITY":"0.00019830","MEAN_MOTION":"15.06393979","OBJECT_TYPE":"PAYLOAD","CENTER_NAME":"EARTH","ELEMENT_SET_NO":"999","MEAN_MOTION_DDOT":"0.0000000000000","REF_FRAME":"TEME","REV_AT_EPOCH":"8694","DECAY_DATE":null,"FILE":"3155694","TLE_LINE2":"2 45376  53.0547 197.7751 0001983  64.9690 295.1505 15.06393979 86949","NORAD_CAT_ID":"45376","APOAPSIS":"548.605","BSTAR":"0.00016332000000","MEAN_ELEMENT_THEORY":"SGP4","SITE":"AFETR","SEMIMAJOR_AXIS":"6925.367","MEAN_MOTION_DOT":"0.00002151","RA_OF_ASC_NODE":"197.7751","PERIAPSIS":"545.859","TIME_SYSTEM":"UTC","ARG_OF_PERICENTER":"64.9690","OBJECT_NAME":"STARLINK-1304","LAUNCH_DATE":"2020-03-18","GP_ID":"186837590","PERIOD":"95.593","MEAN_ANOMALY":"295.1505","TLE_LINE1":"1 45376U 20019S   21283.89234705  .00002151  00000-0  16332-3 0  9998","OBJECT_ID":"2020-019S"},{"INCLINATION":"53.0546","CLASSIFICATION_TYPE":"U","COUNTRY_CODE":"US","RCS_SIZE":"LARGE","EPOCH":"2021-10-10T22:02:07.550016","ECCENTRICITY":"0.00017450","EPHEMERIS_TYPE":"0","MEAN_MOTION":"15.06394785","CENTER_NAME":"EARTH","OBJECT_TYPE":"PAYLOAD","MEAN_MOTION_DDOT":"0.0000000000000","ELEMENT_SET_NO":"999","REF_FRAME":"TEME","REV_AT_EPOCH":"8695","FILE":"3155694","DECAY_DATE":null,"TLE_LINE2":"2 45377  53.0546 197.6630 0001745  64.6679 295.4491 15.06394785 86958","NORAD_CAT_ID":"45377","BSTAR":"-0.00001715700000","APOAPSIS":"548.438","MEAN_ELEMENT_THEORY":"SGP4","SEMIMAJOR_AXIS":"6925.365","SITE":"AFETR","MEAN_MOTION_DOT":"-0.00000537","RA_OF_ASC_NODE":"197.6630","PERIAPSIS":"546.021","ARG_OF_PERICENTER":"64.6679","TIME_SYSTEM":"UTC","OBJECT_NAME":"STARLINK-1305","LAUNCH_DATE":"2020-03-18","GP_ID":"186837840","MEAN_ANOMALY":"295.4491","PERIOD":"95.592","TLE_LINE1":"1 45377U 20019T   21283.91814294 -.00000537  00000-0 -17157-4 0  9994","OBJECT_ID":"2020-019T"},{"ECCENTRICITY":"0.00018740","EPHEMERIS_TYPE":"0","EPOCH":"2021-10-10T21:46:11.325792","RCS_SIZE":"LARGE","COUNTRY_CODE":"US","INCLINATION":"53.0549","CLASSIFICATION_TYPE":"U","TLE_LINE2":"2 45378  53.0549 197.7109 0001874  65.3051 294.8133 15.06399453 86952","DECAY_DATE":null,"FILE":"3155694","REV_AT_EPOCH":"8695","REF_FRAME":"TEME","ELEMENT_SET_NO":"999","MEAN_MOTION_DDOT":"0.0000000000000","CENTER_NAME":"EARTH","OBJECT_TYPE":"PAYLOAD","MEAN_MOTION":"15.06399453","PERIAPSIS":"545.917","RA_OF_ASC_NODE":"197.7109","SEMIMAJOR_AXIS":"6925.350","SITE":"AFETR","MEAN_MOTION_DOT":"0.00001435","MEAN_ELEMENT_THEORY":"SGP4","BSTAR":"0.00011523000000","APOAPSIS":"548.513","NORAD_CAT_ID":"45378","TLE_LINE1":"1 45378U 20019U   21283.90707553  .00001435  00000-0  11523-3 0  9999","OBJECT_ID":"2020-019U","MEAN_ANOMALY":"294.8133","PERIOD":"95.592","GP_ID":"186839091","LAUNCH_DATE":"2020-03-18","OBJECT_NAME":"STARLINK-1310","TIME_SYSTEM":"UTC","ARG_OF_PERICENTER":"65.3051"},{"PERIOD":"95.593","MEAN_ANOMALY":"296.9464","TLE_LINE1":"1 45379U 20019V   21283.91077087  .00001813  00000-0  14058-3 0  9999","OBJECT_ID":"2020-019V","TIME_SYSTEM":"UTC","ARG_OF_PERICENTER":"63.1694","OBJECT_NAME":"STARLINK-1319","LAUNCH_DATE":"2020-03-18","GP_ID":"186839342","SITE":"AFETR","SEMIMAJOR_AXIS":"6925.368","MEAN_MOTION_DOT":"0.00001813","RA_OF_ASC_NODE":"197.6968","PERIAPSIS":"546.089","NORAD_CAT_ID":"45379","BSTAR":"0.00014058000000","APOAPSIS":"548.377","MEAN_ELEMENT_THEORY":"SGP4","REV_AT_EPOCH":"8695","FILE":"3155694","DECAY_DATE":null,"TLE_LINE2":"2 45379  53.0538 197.6968 0001652  63.1694 296.9464 15.06393686 86958","MEAN_MOTION":"15.06393686","CENTER_NAME":"EARTH","OBJECT_TYPE":"PAYLOAD","ELEMENT_SET_NO":"999","MEAN_MOTION_DDOT":"0.0000000000000","REF_FRAME":"TEME","EPOCH":"2021-10-10T21:51:30.603168","RCS_SIZE":"LARGE","ECCENTRICITY":"0.00016520","EPHEMERIS_TYPE":"0","INCLINATION":"53.0538","CLASSIFICATION_TYPE":"U","COUNTRY_CODE":"US"},{"PERIOD":"95.592","MEAN_ANOMALY":"292.7989","OBJECT_ID":"2020-019W","TLE_LINE1":"1 45380U 20019W   21283.90892378  .00002683  00000-0  19894-3 0  9997","OBJECT_NAME":"STARLINK-1207","ARG_OF_PERICENTER":"67.3166","TIME_SYSTEM":"UTC","GP_ID":"186838090","LAUNCH_DATE":"2020-03-18","RA_OF_ASC_NODE":"177.7042","MEAN_MOTION_DOT":"0.00002683","SITE":"AFETR","SEMIMAJOR_AXIS":"6925.335","PERIAPSIS":"546.108","NORAD_CAT_ID":"45380","MEAN_ELEMENT_THEORY":"SGP4","APOAPSIS":"548.292","BSTAR":"0.00019894000000","DECAY_DATE":null,"FILE":"3155694","REV_AT_EPOCH":"8722","TLE_LINE2":"2 45380  53.0550 177.7042 0001577  67.3166 292.7989 15.06404533 87223","CENTER_NAME":"EARTH","OBJECT_TYPE":"PAYLOAD","MEAN_MOTION":"15.06404533","REF_FRAME":"TEME","MEAN_MOTION_DDOT":"0.0000000000000","ELEMENT_SET_NO":"999","RCS_SIZE":"LARGE","EPOCH":"2021-10-10T21:48:51.014592","ECCENTRICITY":"0.00015770","EPHEMERIS_TYPE":"0","CLASSIFICATION_TYPE":"U","INCLINATION":"53.0550","COUNTRY_CODE":"US"},{"REV_AT_EPOCH":"8722","FILE":"3155694","DECAY_DATE":null,"TLE_LINE2":"2 45381  53.0530 177.6530 0001811  66.3952 293.7227 15.06400779 87220","MEAN_MOTION":"15.06400779","CENTER_NAME":"EARTH","OBJECT_TYPE":"PAYLOAD","MEAN_MOTION_DDOT":"0.0000000000000","ELEMENT_SET_NO":"999","REF_FRAME":"TEME","RCS_SIZE":"LARGE","EPOCH":"2021-10-10T22:04:47.024544","ECCENTRICITY":"0.00018110","EPHEMERIS_TYPE":"0","INCLINATION":"53.0530","CLASSIFICATION_TYPE":"U","COUNTRY_CODE":"US","PERIOD":"95.592","MEAN_ANOMALY":"293.7227","OBJECT_ID":"2020-019X","TLE_LINE1":"1 45381U 20019X   21283.91998871 -.00000154  00000-0  85796-5 0  9992","ARG_OF_PERICENTER":"66.3952","TIME_SYSTEM":"UTC","OBJECT_NAME":"STARLINK-1258","LAUNCH_DATE":"2020-03-18","GP_ID":"186838340","SITE":"AFETR","MEAN_MOTION_DOT":"-0.00000154","SEMIMAJOR_AXIS":"6925.346","RA_OF_ASC_NODE":"177.6530","PERIAPSIS":"545.957","NORAD_CAT_ID":"45381","APOAPSIS":"548.465","BSTAR":"0.00000857960000","MEAN_ELEMENT_THEORY":"SGP4"},{"LAUNCH_DATE":"2020-03-18","GP_ID":"186838592","TIME_SYSTEM":"UTC","ARG_OF_PERICENTER":"62.7161","OBJECT_NAME":"STARLINK-1264","OBJECT_ID":"2020-019Y","TLE_LINE1":"1 45382U 20019Y   21283.89788674  .00001387  00000-0  11200-3 0  9993","MEAN_ANOMALY":"297.4008","PERIOD":"95.593","APOAPSIS":"548.462","BSTAR":"0.00011200000000","MEAN_ELEMENT_THEORY":"SGP4","NORAD_CAT_ID":"45382","PERIAPSIS":"546.016","SITE":"AFETR","MEAN_MOTION_DOT":"0.00001387","SEMIMAJOR_AXIS":"6925.374","RA_OF_ASC_NODE":"177.7540","ELEMENT_SET_NO":"999","MEAN_MOTION_DDOT":"0.0000000000000","REF_FRAME":"TEME","MEAN_MOTION":"15.06391797","OBJECT_TYPE":"PAYLOAD","CENTER_NAME":"EARTH","TLE_LINE2":"2 45382  53.0547 177.7540 0001766  62.7161 297.4008 15.06391797 87049","REV_AT_EPOCH":"8704","FILE":"3155694","DECAY_DATE":null,"COUNTRY_CODE":"US","INCLINATION":"53.0547","CLASSIFICATION_TYPE":"U","EPHEMERIS_TYPE":"0","ECCENTRICITY":"0.00017660","EPOCH":"2021-10-10T21:32:57.414336","RCS_SIZE":"LARGE"},{"DECAY_DATE":null,"FILE":"3155694","REV_AT_EPOCH":"8722","TLE_LINE2":"2 45383  53.0530 177.6830 0001714  68.8751 291.2421 15.06397786 87223","CENTER_NAME":"EARTH","OBJECT_TYPE":"PAYLOAD","MEAN_MOTION":"15.06397786","REF_FRAME":"TEME","MEAN_MOTION_DDOT":"0.0000000000000","ELEMENT_SET_NO":"999","RCS_SIZE":"LARGE","EPOCH":"2021-10-10T21:54:10.247904","EPHEMERIS_TYPE":"0","ECCENTRICITY":"0.00017140","INCLINATION":"53.0530","CLASSIFICATION_TYPE":"U","COUNTRY_CODE":"US","MEAN_ANOMALY":"291.2421","PERIOD":"95.592","TLE_LINE1":"1 45383U 20019Z   21283.91261861  .00000969  00000-0  83965-4 0  9994","OBJECT_ID":"2020-019Z","OBJECT_NAME":"STARLINK-1266","ARG_OF_PERICENTER":"68.8751","TIME_SYSTEM":"UTC","GP_ID":"186838843","LAUNCH_DATE":"2020-03-18","RA_OF_ASC_NODE":"177.6830","MEAN_MOTION_DOT":"0.00000969","SITE":"AFETR","SEMIMAJOR_AXIS":"6925.355","PERIAPSIS":"546.033","NORAD_CAT_ID":"45383","MEAN_ELEMENT_THEORY":"SGP4","BSTAR":"0.00008396500000","APOAPSIS":"548.407"}];
